BEIDOU-2 IGSO-1         
1 36828U 10036A   26122.76966646 -.00000054  00000+0  00000+0 0  9998
2 36828  54.2940 163.3702 0058449 224.0964 217.0944  1.00286245 57649
BEIDOU-2 G4             
1 37210U 10057A   26129.14586288 -.00000102  00000+0  00000+0 0  9990
2 37210   3.5503  69.1602 0005612 213.7566 156.5290  1.00273297 56908
BEIDOU-2 IGSO-2         
1 37256U 10068A   26126.82717209 -.00000199  00000+0  00000+0 0  9999
2 37256  47.6271 272.3432 0052277 211.0703 144.6242  1.00297293 56379
BEIDOU-2 IGSO-3         
1 37384U 11013A   26127.41762512 -.00000185  00000+0  00000+0 0  9990
2 37384  62.3544  40.5383 0033842 187.1430 256.1700  1.00278193 55257
BEIDOU-2 IGSO-4         
1 37763U 11038A   26127.08566644  .00000028  00000+0  00000+0 0  9994
2 37763  54.5895 166.0525 0159176 231.8688 309.0637  1.00254387 54236
BEIDOU-2 IGSO-5         
1 37948U 11073A   26128.86969726 -.00000159  00000+0  00000+0 0  9999
2 37948  47.7531 272.0313 0111460 220.7494 139.9104  1.00257961 52745
BEIDOU-2 G5             
1 38091U 12008A   26129.05446400  .00000067  00000+0  00000+0 0  9996
2 38091   3.4764  69.9153 0011383 272.0499 323.2020  1.00270943 51979
BEIDOU-2 M3             
1 38250U 12018A   26128.45381045 -.00000038  00000+0  00000+0 0  9999
2 38250  55.7928 306.2139 0019669 277.1817  82.5892  1.86230179 95201
BEIDOU-2 M4             
1 38251U 12018B   26128.38604932 -.00000037  00000+0  00000+0 0  9994
2 38251  55.6941 305.4331 0010866 282.3700  77.5021  1.86229836 95206
BEIDOU-2 M6             
1 38775U 12050B   26127.02200532 -.00000027  00000+0  00000+0 0  9998
2 38775  56.5101  64.2551 0014401 350.3716   9.5855  1.86231041 92546
BEIDOU-2 G6             
1 38953U 12059A   26128.91692640 -.00000166  00000+0  00000+0 0  9993
2 38953   4.3223  73.9277 0010826 319.6166 247.3549  1.00273424 49514
BEIDOU-3S IGSO-1S       
1 40549U 15019A   26128.91926642 -.00000160  00000+0  00000+0 0  9992
2 40549  49.2714 295.9324 0037588 190.3869 165.7185  1.00259306 40678
BEIDOU-3S M2S           
1 40748U 15037A   26128.58906300 -.00000037  00000+0  00000+0 0  9998
2 40748  54.9079 303.4092 0007455 268.2126  91.6939  1.86232348 73383
BEIDOU-3S M1S           
1 40749U 15037B   26127.19065390 -.00000043  00000+0  00000+0 0  9997
2 40749  54.9051 303.4449 0004209  54.8285 305.1998  1.86255067 73368
BEIDOU-3S IGSO-2S       
1 40938U 15053A   26128.83844314 -.00000148  00000+0  00000+0 0  9994
2 40938  49.2857 259.2498 0063889 191.0081 174.8755  1.00269008 38963
BEIDOU-2 IGSO-6         
1 41434U 16021A   26128.80427500 -.00000155  00000+0  00000+0 0  9991
2 41434  60.1731  38.4330 0057590 232.4747 340.0349  1.00266779 37081
BEIDOU-2 G7             
1 41586U 16037A   26128.99342043 -.00000345  00000+0  00000+0 0  9995
2 41586   1.6231  68.9396 0007714 356.7127 269.3862  1.00272800  6495
BEIDOU-3 M1             
1 43001U 17069A   26128.93521896 -.00000019  00000+0  00000+0 0  9992
2 43001  56.6594  64.3771 0011792 319.3638  40.5376  1.86231526 57872
BEIDOU-3 M2             
1 43002U 17069B   26128.33767399 -.00000020  00000+0  00000+0 0  9999
2 43002  56.6766  64.4251 0022120  73.1957 287.0348  1.86210859 57855
BEIDOU-3 M7             
1 43107U 18003A   26128.61547406 -.00000039  00000+0  00000+0 0  9990
2 43107  54.3643 303.6940 0005279  83.6376 276.4149  1.86228391 56614
BEIDOU-3 M8             
1 43108U 18003B   26128.56086074 -.00000039  00000+0  00000+0 0  9994
2 43108  54.3576 303.6780 0002137 281.3024  78.6657  1.86231291 56629
BEIDOU-3 M4             
1 43207U 18018A   26127.92958346 -.00000022  00000+0  00000+0 0  9991
2 43207  56.6178  64.4755 0007742   4.8904 355.1044  1.86231531 55997
BEIDOU-3 M3             
1 43208U 18018B   26127.99603816 -.00000022  00000+0  00000+0 0  9998
2 43208  56.6171  64.4775 0009752 331.5711  28.3632  1.86231434 55996
BEIDOU-3 M9             
1 43245U 18029A   26128.75062547 -.00000037  00000+0  00000+0 0  9992
2 43245  54.2314 301.3274 0000822  93.5762 266.4233  1.86228510 55169
BEIDOU-3 M10            
1 43246U 18029B   26128.68518759 -.00000037  00000+0  00000+0 0  9996
2 43246  54.2284 301.3560 0004742  36.1776 323.8446  1.86229461 55145
BEIDOU-2 IGSO-7         
1 43539U 18057A   26128.53901286 -.00000029  00000+0  00000+0 0  9998
2 43539  55.1875 163.4048 0103898 237.7189 131.6026  1.00263483 28735
BEIDOU-3 M5             
1 43581U 18062A   26128.37243906  .00000037  00000+0  00000+0 0  9999
2 43581  54.0835 183.6581 0004699 288.6287  71.3975  1.86228855 52890
BEIDOU-3 M6             
1 43582U 18062B   26128.23571174  .00000036  00000+0  00000+0 0  9995
2 43582  54.0832 183.6519 0004847  19.3034 340.7924  1.86228096 52897
BEIDOU-3 M12            
1 43602U 18067A   26128.17410815  .00000037  00000+0  00000+0 0  9991
2 43602  54.1784 182.3974 0007855  32.8983 327.2281  1.86227968 52379
BEIDOU-3 M11            
1 43603U 18067B   26128.30905422  .00000038  00000+0  00000+0 0  9991
2 43603  54.1757 182.3566 0004470  18.7640 341.3298  1.86227402 52402
BEIDOU-3 M13            
1 43622U 18072A   26128.26413194 -.00000022  00000+0  00000+0 0  9997
2 43622  56.5916  63.9763 0008552 319.8985  40.0271  1.86231481 51912
